[{"OBJECT_NAME":"STARLINK-30447","OBJECT_ID":"2023-144L","EPOCH":"2026-03-09T13:26:12.748992","MEAN_MOTION":15.26742466,"ECCENTRICITY":0.0001542,"INCLINATION":42.9968,"RA_OF_ASC_NODE":260.1413,"ARG_OF_PERICENTER":274.2299,"MEAN_ANOMALY":85.8376,"EPHEMERIS_TYPE":0,"CLASSIFICATION_TYPE":"U","NORAD_CAT_ID":57874,"ELEMENT_SET_NO":999,"REV_AT_EPOCH":13791,"BSTAR":6.498104e-6,"MEAN_MOTION_DOT":-8.5e-7,"MEAN_MOTION_DDOT":0},{"OBJECT_NAME":"239ALFEROV (RS61S)","OBJECT_ID":"2025-155F","EPOCH":"2026-03-09T21:46:33.382848","MEAN_MOTION":15.29933217,"ECCENTRICITY":0.00084878,"INCLINATION":97.4469,"RA_OF_ASC_NODE":37.6373,"ARG_OF_PERICENTER":151.5904,"MEAN_ANOMALY":208.58,"EPHEMERIS_TYPE":0,"CLASSIFICATION_TYPE":"U","NORAD_CAT_ID":64881,"ELEMENT_SET_NO":999,"REV_AT_EPOCH":6561,"BSTAR":0.00067233359,"MEAN_MOTION_DOT":0.00019457,"MEAN_MOTION_DDOT":0}]
